{
    "links": {
        "self": "http://www.neowsapp.com/rest/v1/neo/3753590?api_key=iIulBulltgU6a56xZRHN4H3l9WmuAYTsLGpBGhQ2"
    },
    "id": "3753590",
    "neo_reference_id": "3753590",
    "name": "(2016 JT38)",
    "designation": "2016 JT38",
    "nasa_jpl_url": "http://ssd.jpl.nasa.gov/sbdb.cgi?sstr=3753590",
    "absolute_magnitude_h": 20.2,
    "estimated_diameter": {
        "kilometers": {
            "estimated_diameter_min": 0.2424124811,
            "estimated_diameter_max": 0.5420507863
        },
        "meters": {
            "estimated_diameter_min": 242.4124811008,
            "estimated_diameter_max": 542.0507863358
        },
        "miles": {
            "estimated_diameter_min": 0.1506280858,
            "estimated_diameter_max": 0.3368146392
        },
        "feet": {
            "estimated_diameter_min": 795.3165644948,
            "estimated_diameter_max": 1778.3819018419
        }
    },
    "is_potentially_hazardous_asteroid": true,
    "close_approach_data": [
        {
            "close_approach_date": "2014-10-10",
            "close_approach_date_full": "2014-Oct-10 18:39",
            "epoch_date_close_approach": 1412966340000,
            "relative_velocity": {
                "kilometers_per_second": "4.7960279167",
                "kilometers_per_hour": "17265.7005002055",
                "miles_per_hour": "10728.2348469194"
            },
            "miss_distance": {
                "astronomical": "1.8895975183",
                "lunar": "735.0534346187",
                "kilometers": "282679763.894966021",
                "miles": "175649060.3291762498"
            },
            "orbiting_body": "Juptr"
        },
        {
            "close_approach_date": "2016-07-25",
            "close_approach_date_full": "2016-Jul-25 19:58",
            "epoch_date_close_approach": 1469476680000,
            "relative_velocity": {
                "kilometers_per_second": "12.5572678854",
                "kilometers_per_hour": "45206.1643874512",
                "miles_per_hour": "28089.3525328582"
            },
            "miss_distance": {
                "astronomical": "0.1810595073",
                "lunar": "70.4321483397",
                "kilometers": "27086116.635329451",
                "miles": "16830532.4350343838"
            },
            "orbiting_body": "Earth"
        }
    ],
    "orbital_data": {
        "orbit_id": "9",
        "orbit_determination_date": "2020-04-22 07:42:44",
        "first_observation_date": "2016-04-26",
        "last_observation_date": "2016-05-28",
        "data_arc_in_days": 32,
        "observations_used": 21,
        "orbit_uncertainty": "8",
        "minimum_orbit_intersection": ".00750503",
        "jupiter_tisserand_invariant": "3.250",
        "epoch_osculation": "2457512.5",
        "eccentricity": ".6505584185870891",
        "semi_major_axis": "2.329441261793662",
        "inclination": ".9035522800329466",
        "ascending_node_longitude": "236.4299546159105",
        "orbital_period": "1298.602016063957",
        "perihelion_distance": ".814003638329664",
        "perihelion_argument": "88.51799596131391",
        "aphelion_distance": "3.844878885257661",
        "perihelion_time": "2457610.841142156545",
        "mean_anomaly": "332.7377512598806",
        "mean_motion": ".277221192903392",
        "equinox": "J2000",
        "orbit_class": {
            "orbit_class_type": "APO",
            "orbit_class_description": "Near-Earth asteroid orbits which cross the Earth’s orbit similar to that of 1862 Apollo",
            "orbit_class_range": "a (semi-major axis) > 1.0 AU; q (perihelion) < 1.017 AU"
        }
    },
    "is_sentry_object": false
}